{"type": "FeatureCollection", "features": [{"type": "Feature", "geometry": {"type": "Point", "coordinates": [2.3017146, 48.8649094]}, "properties": {"number": 1, "street": "Avenue des Champs", "city": "Paris", "postal_code": 75008}}, {"type": "Feature", "geometry": {"type": "Point", "coordinates": [2.3604077, 48.8554814]}, "properties": {"number": 10, "street": "Rue de Rivoli", "city": "Paris", "postal_code": 75004}}, {"type": "Feature", "geometry": {"type": "Point", "coordinates": [2.3326996, 48.8728827]}, "properties": {"number": 25, "street": "Boulevard Haussmann", "city": "Paris", "postal_code": 75009}}, {"type": "Feature", "geometry": {"type": "Point", "coordinates": [2.3406911, 48.8749332]}, "properties": {"number": 50, "street": "Rue La Fayette", "city": "Paris", "postal_code": 75009}}, {"type": "Feature", "geometry": {"type": "Point", "coordinates": [2.2892652, 48.8713351]}, "properties": {"number": 75, "street": "Avenue Victor Hugo", "city": "Paris", "postal_code": 75016}}, {"type": "Feature", "geometry": {"type": "Point", "coordinates": [2.299579054698469, 48.86222122103297]}, "properties": {"number": 100, "street": "Quai Branly", "city": "Paris", "postal_code": 75007}}, {"type": "Feature", "geometry": {"type": "Point", "coordinates": [2.3062825, 48.8572092]}, "properties": {"number": 33, "street": "Rue Cler", "city": "Paris", "postal_code": 75007}}, {"type": "Feature", "geometry": {"type": "Point", "coordinates": [2.3700992, 48.8537119]}, "properties": {"number": 12, "street": "Place de la Bastille", "city": "Paris", "postal_code": 75011}}, {"type": "Feature", "geometry": {"type": "Point", "coordinates": [2.3483915, 48.8534951]}, "properties": {"number": 8, "street": "Rue de Montmartre", "city": "Paris", "postal_code": 75001}}, {"type": "Feature", "geometry": {"type": "Point", "coordinates": [2.3716298, 48.8526332]}, "properties": {"number": 27, "street": " Rue du Faubourg Saint-Antoine", "city": "Paris", "postal_code": 75011}}]}